NORAD_CAT_ID,OBJECT_NAME,OBJECT_TYPE,EPOCH,MEAN_MOTION,ECCENTRICITY,INCLINATION,RA_OF_ASC_NODE,ARG_OF_PERICENTER,MEAN_ANOMALY,BSTAR,MEAN_MOTION_DOT,MEAN_MOTION_DDOT,TLE_LINE0,TLE_LINE1,TLE_LINE2,SEMIMAJOR_AXIS,PERIOD,APOGEE,PERIGEE,DECAYED
55942.0,STARLINK-5917,PAYLOAD,2024-07-29 09:32:54,14.98323347,0.0003165,70.0011,327.5877,266.8055,93.2742,0.00014073,1.586e-05,0.0,0 STARLINK-5917,1 55942U 23037AE  24211.39785550  .00001586  00000-0  14073-3 0  9990,2 55942  70.0011 327.5877 0003165 266.8055  93.2742 14.98323347 75869,6950.213,96.107,574.278,569.879,0.0
55942.0,STARLINK-5917,PAYLOAD,2024-07-29 17:33:34,14.98330143,0.000296,70.0011,326.7472,266.1966,93.8855,7.747e-05,8.31e-06,0.0,0 STARLINK-5917,1 55942U 23037AE  24211.73165376  .00000831  00000-0  77470-4 0  9999,2 55942  70.0011 326.7472 0002960 266.1966  93.8855 14.98330143 76254,6950.192,96.107,574.115,570.0,0.0
55942.0,STARLINK-5917,PAYLOAD,2024-07-30 14:23:19,14.98335647,0.0002967,70.0007,324.56,270.0342,90.0477,2.3063e-06,-6.5e-07,0.0,0 STARLINK-5917,1 55942U 23037AE  24212.59953209 -.00000065  00000-0  23063-5 0  9994,2 55942  70.0007 324.5600 0002967 270.0342  90.0477 14.98335647 76047,6950.175,96.107,574.103,569.978,0.0
55942.0,STARLINK-5917,PAYLOAD,2024-07-30 17:35:35,14.98335643,0.0002972,70.0006,324.2233,270.3883,89.6936,1.6538e-06,-7.3e-07,0.0,0 STARLINK-5917,1 55942U 23037AE  24212.73305169 -.00000073  00000-0  16538-5 0  9994,2 55942  70.0006 324.2233 0002972 270.3883  89.6936 14.98335643 76404,6950.175,96.107,574.106,569.975,0.0
55942.0,STARLINK-5917,PAYLOAD,2024-07-31 14:25:20,14.98336583,0.000303,70.001,322.0353,273.3837,86.6976,2.6145e-05,2.19e-06,0.0,0 STARLINK-5917,1 55942U 23037AE  24213.60092921  .00000219  00000-0  26145-4 0  9995,2 55942  70.0010 322.0353 0003030 273.3837  86.6976 14.98336583 76197,6950.173,96.107,574.143,569.932,0.0
55942.0,STARLINK-5917,PAYLOAD,2024-07-31 17:37:36,14.98338509,0.0003129,70.0008,321.6982,274.6624,85.4178,7.4563e-05,7.97e-06,0.0,0 STARLINK-5917,1 55942U 23037AE  24213.73444634  .00000797  00000-0  74563-4 0  9999,2 55942  70.0008 321.6982 0003129 274.6624  85.4178 14.98338509 76555,6950.167,96.106,574.206,569.857,0.0
55942.0,STARLINK-5917,PAYLOAD,2024-08-01 00:02:08,14.98331164,0.0002944,70.0012,321.0258,272.4272,87.655,3.8166e-05,3.62e-06,0.0,0 STARLINK-5917,1 55942U 23037AE  24214.00149143  .00000362  00000-0  38166-4 0  9994,2 55942  70.0012 321.0258 0002944 272.4272  87.6550 14.98331164 76591,6950.189,96.107,574.1,570.008,0.0
55942.0,STARLINK-5917,PAYLOAD,2024-08-01 11:15:05,14.98328548,0.0002983,70.0014,319.8471,274.5509,85.5309,3.6878e-05,3.47e-06,0.0,0 STARLINK-5917,1 55942U 23037AE  24214.46881307  .00000347  00000-0  36878-4 0  9990,2 55942  70.0014 319.8471 0002983 274.5509  85.5309 14.98328548 76326,6950.197,96.107,574.136,569.989,0.0
55942.0,STARLINK-5917,PAYLOAD,2024-08-01 17:39:37,14.9833643,0.000285,70.0018,319.176,265.6795,94.4039,0.00011805,1.316e-05,0.0,0 STARLINK-5917,1 55942U 23037AE  24214.73584507  .00001316  00000-0  11805-3 0  9991,2 55942  70.0018 319.1760 0002850 265.6795  94.4039 14.98336430 76705,6950.173,96.107,574.019,570.057,0.0
55942.0,STARLINK-5917,PAYLOAD,2024-08-02 12:53:14,14.98324391,0.0003066,70.0011,317.1546,265.8786,94.2022,-9.0646e-05,-1.174e-05,0.0,0 STARLINK-5917,1 55942U 23037AE  24215.53697859 -.00001174  00000-0 -90646-4 0  9990,2 55942  70.0011 317.1546 0003066 265.8786  94.2022 14.98324391 76826,6950.21,96.107,574.206,569.944,0.0
55942.0,STARLINK-5917,PAYLOAD,2024-08-02 14:29:22,14.98325405,0.0003046,70.001,316.9863,265.9713,94.1098,-8.1408e-05,-1.064e-05,0.0,0 STARLINK-5917,1 55942U 23037AE  24215.60373783 -.00001064  00000-0 -81408-4 0  9999,2 55942  70.0010 316.9863 0003046 265.9713  94.1098 14.98325405 76495,6950.207,96.107,574.189,569.955,0.0
55942.0,STARLINK-5917,PAYLOAD,2024-08-02 16:05:30,14.98326881,0.0003037,70.001,316.818,266.2616,93.8196,-6.2956e-05,-8.44e-06,0.0,0 STARLINK-5917,1 55942U 23037AE  24215.67049659 -.00000844  00000-0 -62956-4 0  9990,2 55942  70.0010 316.8180 0003037 266.2616  93.8196 14.98326881 76508,6950.203,96.107,574.178,569.957,0.0
55942.0,STARLINK-5917,PAYLOAD,2024-08-03 00:06:10,14.98331096,0.000328,70.0006,315.9757,267.9164,92.1619,-4.1598e-05,-5.89e-06,0.0,0 STARLINK-5917,1 55942U 23037AE  24216.00429288 -.00000589  00000-0 -41598-4 0  9993,2 55942  70.0006 315.9757 0003280 267.9164  92.1619 14.98331096 76897,6950.19,96.107,574.334,569.775,0.0
55942.0,STARLINK-5917,PAYLOAD,2024-08-03 14:31:22,14.983391,0.0002935,70.0005,314.4615,257.2408,102.8423,3.7317e-05,3.52e-06,0.0,0 STARLINK-5917,1 55942U 23037AE  24216.60512651  .00000352  00000-0  37317-4 0  9996,2 55942  70.0005 314.4615 0002935 257.2408 102.8423 14.98339100 76641,6950.165,96.106,574.07,569.99,0.0
55942.0,STARLINK-5917,PAYLOAD,2024-08-03 16:07:30,14.98340862,0.0002877,70.0006,314.2933,256.4847,103.5992,6.5806e-05,6.92e-06,0.0,0 STARLINK-5917,1 55942U 23037AE  24216.67188442  .00000692  00000-0  65806-4 0  9991,2 55942  70.0006 314.2933 0002877 256.4847 103.5992 14.98340862 76990,6950.159,96.106,574.024,570.025,0.0
55942.0,STARLINK-5917,PAYLOAD,2024-08-04 12:57:16,14.98326156,0.0002916,70.0008,312.105,264.5762,95.5065,0.000109,1.208e-05,0.0,0 STARLINK-5917,1 55942U 23037AE  24217.53977375  .00001208  00000-0  10900-3 0  9996,2 55942  70.0008 312.1050 0002916 264.5762  95.5065 14.98326156 77126,6950.205,96.107,574.096,570.043,0.0
55942.0,STARLINK-5917,PAYLOAD,2024-08-04 14:33:24,14.98327536,0.0002928,70.0004,311.9354,266.7064,93.376,0.00010649,1.178e-05,0.0,0 STARLINK-5917,1 55942U 23037AE  24217.60653301  .00001178  00000-0  10649-3 0  9990,2 55942  70.0004 311.9354 0002928 266.7064  93.3760 14.98327536 76791,6950.201,96.107,574.101,570.03,0.0
55942.0,STARLINK-5917,PAYLOAD,2024-08-04 16:09:32,14.98329291,0.0002708,70.0001,311.7659,260.093,99.9923,0.00013396,1.506e-05,0.0,0 STARLINK-5917,1 55942U 23037AE  24217.67329103  .00001506  00000-0  13396-3 0  9994,2 55942  70.0001 311.7659 0002708 260.0930  99.9923 14.98329291 76804,6950.195,96.107,573.942,570.178,0.0
55942.0,STARLINK-5917,PAYLOAD,2024-08-05 12:59:16,14.9834361,0.0002942,70.0008,309.5795,267.8678,92.2144,0.00012152,1.358e-05,0.0,0 STARLINK-5917,1 55942U 23037AE  24218.54115998  .00001358  00000-0  12152-3 0  9990,2 55942  70.0008 309.5795 0002942 267.8678  92.2144 14.98343610 77275,6950.151,96.106,574.061,569.971,0.0
55942.0,STARLINK-5917,PAYLOAD,2024-08-05 16:11:32,14.98346488,0.0002766,70.0009,309.2428,263.7675,96.3169,0.00015277,1.731e-05,0.0,0 STARLINK-5917,1 55942U 23037AE  24218.67467636  .00001731  00000-0  15277-3 0  9999,2 55942  70.0009 309.2428 0002766 263.7675  96.3169 14.98346488 76954,6950.142,96.106,573.929,570.084,0.0
55942.0,STARLINK-5917,PAYLOAD,2024-08-06 13:01:18,14.9831976,0.0002553,70.0017,307.0547,268.5567,91.5299,-6.2967e-05,-8.44e-06,0.0,0 STARLINK-5917,1 55942U 23037AE  24219.54257840 -.00000844  00000-0 -62967-4 0  9995,2 55942  70.0017 307.0547 0002553 268.5567  91.5299 14.98319760 77425,6950.225,96.108,573.864,570.315,0.0
55942.0,STARLINK-5917,PAYLOAD,2024-08-06 14:37:27,14.98315187,0.0002675,70.0022,306.8907,259.9312,100.1545,-0.00015432,-1.933e-05,0.0,0 STARLINK-5917,1 55942U 23037AE  24219.60934374 -.00001933  00000-0 -15432-3 0  9990,2 55942  70.0022 306.8907 0002675 259.9312 100.1545 14.98315187 77098,6950.239,96.108,573.963,570.245,0.0
55942.0,STARLINK-5917,PAYLOAD,2024-08-06 16:13:34,14.9832047,0.0003047,70.0005,306.7181,272.9938,87.0872,-8.867e-05,-1.151e-05,0.0,0 STARLINK-5917,1 55942U 23037AE  24219.67609952 -.00001151  00000-0 -88670-4 0  9995,2 55942  70.0005 306.7181 0003047 272.9938  87.0872 14.98320470 77104,6950.222,96.108,574.205,569.97,0.0
55942.0,STARLINK-5917,PAYLOAD,2024-08-07 05:02:38,14.98333173,0.0003155,70.0002,305.3717,271.3151,88.7646,-4.7e-05,-6.54e-06,0.0,0 STARLINK-5917,1 55942U 23037AE  24220.21017120 -.00000654  00000-0 -47000-4 0  9996,2 55942  70.0002 305.3717 0003155 271.3151  88.7646 14.98333173 77528,6950.183,96.107,574.241,569.855,0.0
55942.0,STARLINK-5917,PAYLOAD,2024-08-07 11:27:10,14.98338398,0.0003103,70.0005,304.6985,272.0489,88.0315,1.4049e-05,7.5e-07,0.0,0 STARLINK-5917,1 55942U 23037AE  24220.47720604  .00000075  00000-0  14049-4 0  9994,2 55942  70.0005 304.6985 0003103 272.0489  88.0315 14.98338398 77222,6950.167,96.106,574.189,569.875,0.0
55942.0,STARLINK-5917,PAYLOAD,2024-08-08 13:05:19,14.98328252,0.0003259,70.0002,302.005,276.8668,83.212,0.00021264,2.445e-05,0.0,0 STARLINK-5917,1 55942U 23037AE  24221.54536685  .00002445  00000-0  21264-3 0  9996,2 55942  70.0002 302.0050 0003259 276.8668  83.2120 14.98328252 77383,6950.198,96.107,574.328,569.798,0.0
55942.0,STARLINK-5917,PAYLOAD,2024-08-08 14:41:27,14.9833041,0.0003259,70.0001,301.8366,276.9959,83.0829,0.00023346,2.694e-05,0.0,0 STARLINK-5917,1 55942U 23037AE  24221.61212518  .00002694  00000-0  23346-3 0  9999,2 55942  70.0001 301.8366 0003259 276.9959  83.0829 14.98330410 77735,6950.192,96.107,574.322,569.792,0.0
55942.0,STARLINK-5917,PAYLOAD,2024-08-08 22:42:06,14.98388548,0.0003296,70.0004,300.9952,268.5878,91.4903,-0.00093136,-0.00011205,0.0,0 STARLINK-5917,1 55942U 23037AE  24221.94590890 -.00011205  00000-0 -93136-3 0  9991,2 55942  70.0004 300.9952 0003296 268.5878  91.4903 14.98388548 77446,6950.012,96.103,574.168,569.586,0.0
55942.0,STARLINK-5917,PAYLOAD,2024-08-09 13:07:20,14.98333813,0.0003059,70.0006,299.481,271.0408,89.0401,-1.6635e-05,-2.92e-06,0.0,0 STARLINK-5917,1 55942U 23037AE  24222.54676849 -.00000292  00000-0 -16635-4 0  9991,2 55942  70.0006 299.4810 0003059 271.0408  89.0401 14.98333813 77539,6950.181,96.107,574.172,569.92,0.0
55942.0,STARLINK-5917,PAYLOAD,2024-08-09 14:43:28,14.98335563,0.000306,70.0005,299.3124,271.6265,88.4544,1.5727e-06,-7.4e-07,0.0,0 STARLINK-5917,1 55942U 23037AE  24222.61352680 -.00000074  00000-0  15727-5 0  9992,2 55942  70.0005 299.3124 0003060 271.6265  88.4544 14.98335563 77887,6950.176,96.107,574.167,569.914,0.0
